OBJECT_NAME,OBJECT_ID,EPOCH,MEAN_MOTION,ECCENTRICITY,INCLINATION,RA_OF_ASC_NODE,ARG_OF_PERICENTER,MEAN_ANOMALY,EPHEMERIS_TYPE,CLASSIFICATION_TYPE,NORAD_CAT_ID,ELEMENT_SET_NO,REV_AT_EPOCH,BSTAR,MEAN_MOTION_DOT,MEAN_MOTION_DDOT
SKYSAT-C4,2016-058B,2026-06-25T23:45:56.398176,15.48851382,.0002026,96.9173,198.3940,140.4009,219.7391,0,U,41771,999,54683,.36233E-3,.1944E-3,0
SKYSAT-C5,2016-058C,2026-06-26T02:28:03.406944,15.34589464,.0001154,97.0470,217.3453,225.8248,134.2902,0,U,41772,999,54511,.25877E-3,.8599E-4,0
SKYSAT-C2,2016-058D,2026-06-26T00:27:29.192832,15.42261578,.0003924,97.0169,198.7820,51.2857,308.8741,0,U,41773,999,54641,.32596E-3,.13945E-3,0
SKYSAT-C3,2016-058E,2026-06-25T14:03:43.049952,15.52881901,.0001259,96.9009,207.1097,117.9292,242.2090,0,U,41774,999,54741,.43484E-3,.26959E-3,0
ALSAT-1B,2016-059C,2026-06-26T05:04:18.954336,14.72282068,.000879,97.7752,185.5857,188.1683,171.9383,0,U,41785,999,52190,.11044E-3,.651E-5,0
PATHFINDER 1,2016-059E,2026-06-25T23:59:17.018592,14.67672090,.0028536,97.8166,175.8781,175.2089,184.9395,0,U,41787,999,52100,.10328E-3,.544E-5,0
SCATSAT 1,2016-059H,2026-06-25T16:00:30.909024,14.79542742,.0053771,98.1188,240.5207,219.5991,140.1288,0,U,41790,999,10284,.15703E-3,.1146E-4,0
GOKTURK 1A,2016-073A,2026-06-26T03:19:03.987840,14.62780749,.0001431,98.1244,71.6722,77.5697,282.5665,0,U,41875,999,51013,.10667E-3,.497E-5,0
RESOURCESAT-2A,2016-074A,2026-06-26T05:17:28.116384,14.21618588,.0003214,98.7527,250.6511,66.4946,293.6569,0,U,41877,999,49558,-.91144E-5,-.64E-6,0
CARTOSAT-2D,2017-008A,2026-06-26T04:21:54.626400,15.19272122,.0004634,97.4105,236.3200,197.6124,162.4951,0,U,41948,999,51894,.30153E-3,.6294E-4,0
SENTINEL-2B,2017-013A,2026-06-26T03:48:17.590752,14.30819644,.0001185,98.5692,251.8065,87.7101,272.4218,0,U,42063,999,48592,.86808E-4,.184E-5,0
CARTOSAT-2E,2017-036C,2026-06-26T04:47:20.986944,15.19231348,.0002174,97.4274,236.8535,276.7896,83.3091,0,U,42767,999,49951,.22619E-3,.4697E-4,0
FORMOSAT-5,2017-049A,2026-06-26T03:44:42.764064,14.50901768,.001246,98.2252,252.2665,59.4438,300.7985,0,U,42920,999,46797,.46205E-4,.139E-5,0
SENTINEL-5P,2017-064A,2026-06-25T19:13:41.018880,14.19520277,.0001019,98.7925,118.8713,89.4231,270.7061,0,U,42969,999,45078,.37427E-4,.35E-6,0
SKYSAT-C11,2017-068A,2026-06-25T22:04:58.607328,15.58327902,.0000485,97.4352,326.1337,126.6311,233.4989,0,U,42987,999,48460,.39214E-3,.2969E-3,0
SKYSAT-C10,2017-068B,2026-06-25T21:34:28.156800,15.34774915,.0001136,97.4509,313.8319,104.8493,255.2876,0,U,42988,999,48369,.30207E-3,.10105E-3,0
SKYSAT-C9,2017-068C,2026-06-25T22:28:39.616896,15.41765303,.0009577,97.4429,314.8886,105.8215,254.4089,0,U,42989,999,48410,.34895E-3,.14703E-3,0
SKYSAT-C8,2017-068D,2026-06-25T22:07:49.071072,15.37136157,.0001357,97.4526,313.6885,95.4716,264.6683,0,U,42990,999,48365,.33861E-3,.12232E-3,0
SKYSAT-C7,2017-068E,2026-06-25T21:59:01.461696,15.37088429,.0007086,97.4535,314.6722,81.3010,278.9036,0,U,42991,999,48371,.33502E-3,.12092E-3,0
SKYSAT-C6,2017-068F,2026-06-25T22:50:47.267808,15.34104853,.000516,97.4571,314.6448,126.8739,233.2977,0,U,42992,999,48366,.31392E-3,.10287E-3,0
CARTOSAT-2F,2018-004A,2026-06-26T03:59:01.182624,15.19282141,.0001565,97.4790,236.7129,172.7085,187.4172,0,U,43111,999,46869,.28059E-3,.5851E-4,0
GAOFEN-1 02,2018-031A,2026-06-26T04:14:13.794720,14.76418980,.0003022,98.0527,239.6784,8.4137,351.7123,0,U,43259,999,44402,.79541E-4,.501E-5,0
GAOFEN-1 03,2018-031B,2026-06-26T05:20:12.134688,14.76436604,.0003646,98.0514,239.5817,61.2710,298.8866,0,U,43260,999,44402,.2368E-4,.113E-5,0
GAOFEN-1 04,2018-031D,2026-06-26T04:45:22.292352,14.76445242,.0002018,98.0527,239.7492,67.1034,293.0388,0,U,43262,999,44401,.11223E-3,.729E-5,0
SENTINEL-3B,2018-039A,2026-06-26T03:59:31.591104,14.26737139,.0000746,98.6245,244.5697,106.5993,253.5269,0,U,43437,999,42540,.59426E-4,.1E-5,0
GAOFEN-5 01,2018-043A,2026-06-26T04:08:58.009632,14.60611347,.0002918,98.4574,148.9479,67.8367,292.3142,0,U,43461,999,43300,.79857E-4,.339E-5,0
GAOFEN-6,2018-048A,2026-06-25T19:30:44.521056,14.76423510,.0011702,98.0567,239.4730,138.2342,221.9762,0,U,43484,999,43466,.48573E-4,.286E-5,0
GAOFEN-11 01,2018-063A,2026-06-26T04:19:29.363808,15.55537581,.0002216,97.1290,244.0353,313.7814,46.3257,0,U,43585,999,44174,.28383E-3,.19328E-3,0
ICESAT-2,2018-070A,2026-06-26T03:00:38.524896,15.28177760,.0006231,92.0081,293.3938,98.8680,261.3275,0,U,43613,999,43382,.4088E-3,.11232E-3,0
HYSIS,2018-096A,2026-06-26T03:27:28.634688,14.78632868,.000183,97.9839,243.8220,94.4630,265.6790,0,U,43719,999,40874,.16682E-3,.117E-4,0
KAZSTSAT,2018-099AB,2026-06-25T15:17:06.406080,14.99894182,.0008589,97.4285,208.1817,46.7589,313.4351,0,U,43783,999,41257,.15753E-3,.1899E-4,0
